[{"OBJECT_NAME":"ROADS 1","OBJECT_ID":"2025-135H","EPOCH":"2026-03-09T20:30:26.589888","MEAN_MOTION":15.21189252,"ECCENTRICITY":0.00052629,"INCLINATION":97.4546,"RA_OF_ASC_NODE":184.7054,"ARG_OF_PERICENTER":153.667,"MEAN_ANOMALY":206.4834,"EPHEMERIS_TYPE":0,"CLASSIFICATION_TYPE":"U","NORAD_CAT_ID":64535,"ELEMENT_SET_NO":999,"REV_AT_EPOCH":3975,"BSTAR":0.00040940157,"MEAN_MOTION_DOT":9.066e-5,"MEAN_MOTION_DDOT":0},{"OBJECT_NAME":"CZ-2C R\/B","OBJECT_ID":"2024-218A","EPOCH":"2026-03-09T22:16:31.791072","MEAN_MOTION":15.22960743,"ECCENTRICITY":0.00453409,"INCLINATION":97.5416,"RA_OF_ASC_NODE":83.973,"ARG_OF_PERICENTER":359.5317,"MEAN_ANOMALY":0.5869,"EPHEMERIS_TYPE":0,"CLASSIFICATION_TYPE":"U","NORAD_CAT_ID":62078,"ELEMENT_SET_NO":999,"REV_AT_EPOCH":7134,"BSTAR":0.00039378379,"MEAN_MOTION_DOT":9.445e-5,"MEAN_MOTION_DDOT":0}]
